{
  "40258": [
    {
      "epoch": "2025-10-14T10:14:26.682983+00:00",
      "mean_motion": 0.99739075,
      "eccentricity": 0.0002105,
      "inclination": 1.2493,
      "raan": 85.7837,
      "arg_perigee": 191.7684,
      "mean_anomaly": 318.2044,
      "bstar": 0.0,
      "tle_line1": "1 40258U 14058A   25287.42669772  .00000100  00000-0  00000+0 0  9994",
      "tle_line2": "2 40258   1.2493  85.7837 0002105 191.7684 318.2044  0.99739075 38532",
      "norad_id": 40258,
      "object_name": "LUCH (OLYMP)"
    },
    {
      "epoch": "2025-10-15T11:55:09.453247+00:00",
      "mean_motion": 0.9960983099999999,
      "eccentricity": 0.0002834,
      "inclination": 1.2561,
      "raan": 85.6449,
      "arg_perigee": 141.78030000000004,
      "mean_anomaly": 32.1708,
      "bstar": 0.0,
      "tle_line1": "1 40258U 14058A   25288.49663719  .00000109  00000-0  00000+0 0  9996",
      "tle_line2": "2 40258   1.2561  85.6449 0002834 141.7803  32.1708  0.99609831 38549",
      "norad_id": 40258,
      "object_name": "LUCH (OLYMP)"
    },
    {
      "epoch": "2025-10-17T18:41:26.871918+00:00",
      "mean_motion": 0.9942539100000001,
      "eccentricity": 0.0003654,
      "inclination": 1.267,
      "raan": 85.7123,
      "arg_perigee": 140.8677,
      "mean_anomaly": 130.5461,
      "bstar": 0.0,
      "tle_line1": "1 40258U 14058A   25290.77878324  .00000109  00000-0  00000+0 0  9990",
      "tle_line2": "2 40258   1.2670  85.7123 0003654 140.8677 130.5461  0.99425391 38568",
      "norad_id": 40258,
      "object_name": "LUCH (OLYMP)"
    },
    {
      "epoch": "2025-10-18T13:02:38.582306+00:00",
      "mean_motion": 0.99347001,
      "eccentricity": 0.0002422,
      "inclination": 1.2642,
      "raan": 85.599,
      "arg_perigee": 115.7007,
      "mean_anomaly": 69.359,
      "bstar": 0.0,
      "tle_line1": "1 40258U 14058A   25291.54350211  .00000101  00000-0  00000+0 0  9998",
      "tle_line2": "2 40258   1.2642  85.5990 0002422 115.7007  69.3590  0.99347001 38571",
      "norad_id": 40258,
      "object_name": "LUCH (OLYMP)"
    },
    {
      "epoch": "2025-10-19T04:55:04.821899+00:00",
      "mean_motion": 0.99277207,
      "eccentricity": 0.0002535,
      "inclination": 1.2653,
      "raan": 85.9459,
      "arg_perigee": 180.4263,
      "mean_anomaly": 240.72299999999998,
      "bstar": 0.0,
      "tle_line1": "1 40258U 14058A   25292.20491692  .00000091  00000-0  00000+0 0  9999",
      "tle_line2": "2 40258   1.2653  85.9459 0002535 180.4263 240.7230  0.99277207 38582",
      "norad_id": 40258,
      "object_name": "LUCH (OLYMP)"
    },
    {
      "epoch": "2025-10-20T11:43:10.652740+00:00",
      "mean_motion": 0.99187575,
      "eccentricity": 0.0002946,
      "inclination": 1.2677,
      "raan": 85.8988,
      "arg_perigee": 189.7054,
      "mean_anomaly": 329.8429,
      "bstar": 0.0,
      "tle_line1": "1 40258U 14058A   25293.48831774  .00000068  00000-0  00000+0 0  9993",
      "tle_line2": "2 40258   1.2677  85.8988 0002946 189.7054 329.8429  0.99187575 38598",
      "norad_id": 40258,
      "object_name": "LUCH (OLYMP)"
    },
    {
      "epoch": "2025-10-22T15:03:11.597198+00:00",
      "mean_motion": 0.99126487,
      "eccentricity": 0.0002852,
      "inclination": 1.2734,
      "raan": 85.5256,
      "arg_perigee": 132.3262,
      "mean_anomaly": 70.8279,
      "bstar": 0.0,
      "tle_line1": "1 40258U 14058A   25295.62721756  .00000026  00000-0  00000+0 0  9993",
      "tle_line2": "2 40258   1.2734  85.5256 0002852 132.3262  70.8279  0.99126487 38612",
      "norad_id": 40258,
      "object_name": "LUCH (OLYMP)"
    },
    {
      "epoch": "2025-10-23T05:36:38.589417+00:00",
      "mean_motion": 0.99126721,
      "eccentricity": 0.0002852,
      "inclination": 1.2748,
      "raan": 85.5184,
      "arg_perigee": 131.9888,
      "mean_anomaly": 287.6317,
      "bstar": 0.0,
      "tle_line1": "1 40258U 14058A   25296.23377997  .00000013  00000-0  00000+0 0  9991",
      "tle_line2": "2 40258   1.2748  85.5184 0002852 131.9888 287.6317  0.99126721 38629",
      "norad_id": 40258,
      "object_name": "LUCH (OLYMP)"
    },
    {
      "epoch": "2025-10-24T16:40:32.738312+00:00",
      "mean_motion": 0.9912734100000001,
      "eccentricity": 0.0002849,
      "inclination": 1.2783,
      "raan": 85.5006,
      "arg_perigee": 132.7919,
      "mean_anomaly": 88.24020000000002,
      "bstar": 0.0,
      "tle_line1": "1 40258U 14058A   25297.69482336 -.00000019  00000-0  00000+0 0  9993",
      "tle_line2": "2 40258   1.2783  85.5006 0002849 132.7919  88.2402  0.99127341 38631",
      "norad_id": 40258,
      "object_name": "LUCH (OLYMP)"
    },
    {
      "epoch": "2025-10-25T16:37:51.153015+00:00",
      "mean_motion": 0.99117801,
      "eccentricity": 0.0003336,
      "inclination": 1.281,
      "raan": 85.465,
      "arg_perigee": 121.3965,
      "mean_anomaly": 95.8185,
      "bstar": 0.0,
      "tle_line1": "1 40258U 14058A   25298.69295316 -.00000045  00000-0  00000+0 0  9993",
      "tle_line2": "2 40258   1.2810  85.4650 0003336 121.3965  95.8185  0.99117801 38646",
      "norad_id": 40258,
      "object_name": "LUCH (OLYMP)"
    },
    {
      "epoch": "2025-10-26T16:35:17.748108+00:00",
      "mean_motion": 0.99118127,
      "eccentricity": 0.0003343,
      "inclination": 1.2834,
      "raan": 85.4515,
      "arg_perigee": 122.25300000000001,
      "mean_anomaly": 91.1735,
      "bstar": 0.0,
      "tle_line1": "1 40258U 14058A   25299.69117764 -.00000070  00000-0  00000+0 0  9992",
      "tle_line2": "2 40258   1.2834  85.4515 0003343 122.2530  91.1735  0.99118127 38651",
      "norad_id": 40258,
      "object_name": "LUCH (OLYMP)"
    },
    {
      "epoch": "2025-10-27T13:07:13.723969+00:00",
      "mean_motion": 0.9911837900000001,
      "eccentricity": 0.0003362,
      "inclination": 1.2855,
      "raan": 85.4381,
      "arg_perigee": 123.0169,
      "mean_anomaly": 35.6968,
      "bstar": 0.0,
      "tle_line1": "1 40258U 14058A   25300.54668662 -.00000092  00000-0  00000+0 0  9991",
      "tle_line2": "2 40258   1.2855  85.4381 0003362 123.0169  35.6968  0.99118379 38664",
      "norad_id": 40258,
      "object_name": "LUCH (OLYMP)"
    },
    {
      "epoch": "2025-10-28T14:47:18.244049+00:00",
      "mean_motion": 0.9912026199999999,
      "eccentricity": 0.0003858,
      "inclination": 1.2881,
      "raan": 85.4216,
      "arg_perigee": 124.46980000000002,
      "mean_anomaly": 55.9068,
      "bstar": 0.0,
      "tle_line1": "1 40258U 14058A   25301.61618338 -.00000118  00000-0  00000+0 0  9994",
      "tle_line2": "2 40258   1.2881  85.4216 0003858 124.4698  55.9068  0.99120262 38673",
      "norad_id": 40258,
      "object_name": "LUCH (OLYMP)"
    },
    {
      "epoch": "2025-10-29T16:27:16.271973+00:00",
      "mean_motion": 0.9912032900000001,
      "eccentricity": 0.0003892,
      "inclination": 1.2908,
      "raan": 85.4094,
      "arg_perigee": 125.8315,
      "mean_anomaly": 76.1697,
      "bstar": 0.0,
      "tle_line1": "1 40258U 14058A   25302.68560500 -.00000142  00000-0  00000+0 0  9996",
      "tle_line2": "2 40258   1.2908  85.4094 0003892 125.8315  76.1697  0.99120329 38684",
      "norad_id": 40258,
      "object_name": "LUCH (OLYMP)"
    },
    {
      "epoch": "2025-10-30T16:24:33.993805+00:00",
      "mean_motion": 0.9912089699999999,
      "eccentricity": 0.0003933,
      "inclination": 1.2934,
      "raan": 85.3993,
      "arg_perigee": 127.2128,
      "mean_anomaly": 70.9702,
      "bstar": 0.0,
      "tle_line1": "1 40258U 14058A   25303.68372678 -.00000162  00000-0  00000+0 0  9996",
      "tle_line2": "2 40258   1.2934  85.3993 0003933 127.2128  70.9702  0.99120897 38694",
      "norad_id": 40258,
      "object_name": "LUCH (OLYMP)"
    },
    {
      "epoch": "2025-10-31T16:21:59.317078+00:00",
      "mean_motion": 0.99120843,
      "eccentricity": 0.0003968,
      "inclination": 1.2961000000000003,
      "raan": 85.3866,
      "arg_perigee": 128.7153,
      "mean_anomaly": 65.6839,
      "bstar": 0.0,
      "tle_line1": "1 40258U 14058A   25304.68193654 -.00000179  00000-0  00000+0 0  9990",
      "tle_line2": "2 40258   1.2961  85.3866 0003968 128.7153  65.6839  0.99120843 38700",
      "norad_id": 40258,
      "object_name": "LUCH (OLYMP)"
    },
    {
      "epoch": "2025-11-01T18:01:41.784393+00:00",
      "mean_motion": 0.99120729,
      "eccentricity": 0.0004009,
      "inclination": 1.299,
      "raan": 85.3703,
      "arg_perigee": 130.3074,
      "mean_anomaly": 85.6586,
      "bstar": 0.0,
      "tle_line1": "1 40258U 14058A   25305.75117806 -.00000195  00000-0  00000+0 0  9992",
      "tle_line2": "2 40258   1.2990  85.3703 0004009 130.3074  85.6586  0.99120729 38715",
      "norad_id": 40258,
      "object_name": "LUCH (OLYMP)"
    },
    {
      "epoch": "2025-11-02T16:16:11.055084+00:00",
      "mean_motion": 0.99120595,
      "eccentricity": 0.0004041,
      "inclination": 1.3017,
      "raan": 85.3577,
      "arg_perigee": 131.6355,
      "mean_anomaly": 55.0382,
      "bstar": 0.0,
      "tle_line1": "1 40258U 14058A   25306.67790573 -.00000207  00000-0  00000+0 0  9996",
      "tle_line2": "2 40258   1.3017  85.3577 0004041 131.6355  55.0382  0.99120595 38724",
      "norad_id": 40258,
      "object_name": "LUCH (OLYMP)"
    },
    {
      "epoch": "2025-11-03T07:39:58.696686+00:00",
      "mean_motion": 0.99120489,
      "eccentricity": 0.0004062,
      "inclination": 1.3036,
      "raan": 85.3469,
      "arg_perigee": 132.5997,
      "mean_anomaly": 283.0074,
      "bstar": 0.0,
      "tle_line1": "1 40258U 14058A   25307.31942936 -.00000213  00000-0  00000+0 0  9997",
      "tle_line2": "2 40258   1.3036  85.3469 0004062 132.5997 283.0074  0.99120489 38734",
      "norad_id": 40258,
      "object_name": "LUCH (OLYMP)"
    }
  ],
  "44878": []
}